[{"OBJECT_NAME":"STARLINK-4714","OBJECT_ID":"2022-107E","EPOCH":"2026-03-09T17:05:53.030976","MEAN_MOTION":15.08835774,"ECCENTRICITY":0.00012724,"INCLINATION":53.2168,"RA_OF_ASC_NODE":244.2748,"ARG_OF_PERICENTER":102.781,"MEAN_ANOMALY":257.3324,"EPHEMERIS_TYPE":0,"CLASSIFICATION_TYPE":"U","NORAD_CAT_ID":53704,"ELEMENT_SET_NO":999,"REV_AT_EPOCH":19469,"BSTAR":-3.701633e-6,"MEAN_MOTION_DOT":-3.47e-6,"MEAN_MOTION_DDOT":0},{"OBJECT_NAME":"FENGYUN 1C DEB","OBJECT_ID":"1999-025BRA","EPOCH":"2026-03-07T21:38:03.570144","MEAN_MOTION":15.14550758,"ECCENTRICITY":0.01045185,"INCLINATION":98.8762,"RA_OF_ASC_NODE":52.6466,"ARG_OF_PERICENTER":91.2586,"MEAN_ANOMALY":270.0618,"EPHEMERIS_TYPE":0,"CLASSIFICATION_TYPE":"U","NORAD_CAT_ID":31346,"ELEMENT_SET_NO":999,"REV_AT_EPOCH":773,"BSTAR":0.0014203897,"MEAN_MOTION_DOT":0.00030047,"MEAN_MOTION_DDOT":0}]
